{"type":"FeatureCollection","features":[{"type":"Feature","geometry":{"type":"Point","coordinates":[80.1810666088987,13.063760226387044]},"properties":{"reportType":"crime","subType":"theft","description":"bike","vehicleNumber":"AB25ER1238","images":[],"timestamp":"2025-10-17T16:51:12.308Z"}},{"type":"Feature","geometry":{"type":"Point","coordinates":[80.16951492700524,13.070825112465513]},"properties":{"reportType":"incident","subType":"abandoned-vehicle","description":"bike","vehicleNumber":"AB25ER1238","images":[],"timestamp":"2025-10-17T16:51:59.066Z"}},{"type":"Feature","geometry":{"type":"Point","coordinates":[79.99285295123784,12.955713422193524]},"properties":{"reportType":"incident","subType":"abandoned-vehicle","description":"bike","vehicleNumber":"AB25ER1238","images":[],"timestamp":"2025-10-17T16:52:40.629Z"}},{"type":"Feature","geometry":{"type":"Point","coordinates":[80.18114089965822,13.09569691777548]},"properties":{"reportType":"crime","subType":"theft","description":"books","vehicleNumber":"2345","images":[],"timestamp":"2025-10-17T17:24:45.416Z"}},{"type":"Feature","geometry":{"type":"Point","coordinates":[80.173775,13.022891]},"properties":{"reportType":"incident","subType":"abandoned-vehicle","description":"books","vehicleNumber":"2345","images":[],"timestamp":"2025-10-17T17:25:05.313Z"}}]}